start=new Date('2023-02-07T00:00:00.000Z').valueOf();
sats=[{"ARG_OF_PERICENTER":"95.2733","REV_AT_EPOCH":"9730","TLE_LINE2":"2 48382  53.0543  10.9124 0001334  95.2733 264.8408 15.06401740 97303","OBJECT_NAME":"STARLINK-2585","TLE_LINE1":"1 48382U 21038AF  23037.68985516  .00002248  00000-0  16976-3 0  9990","OBJECT_ID":"2021-038AF","NORAD_CAT_ID":"48382","MEAN_MOTION":"15.06401740","GP_ID":"224651127","ECCENTRICITY":"0.00013340","LAUNCH_DATE":"2021-05-04","MEAN_MOTION_DDOT":"0.0000000000000","TIME_SYSTEM":"UTC","CENTER_NAME":"EARTH","OBJECT_TYPE":"PAYLOAD","EPOCH":"2023-02-06T16:33:23.485824","CLASSIFICATION_TYPE":"U","RCS_SIZE":"LARGE","REF_FRAME":"TEME","APOAPSIS":"548.132","EPHEMERIS_TYPE":"0","INCLINATION":"53.0543","MEAN_ELEMENT_THEORY":"SGP4","RA_OF_ASC_NODE":"10.9124","PERIAPSIS":"546.284","MEAN_ANOMALY":"264.8408","BSTAR":"0.00016976000000","PERIOD":"95.592","COUNTRY_CODE":"US","DECAY_DATE":null,"MEAN_MOTION_DOT":"0.00002248","FILE":"3776034","SITE":"AFETR","ELEMENT_SET_NO":"999","SEMIMAJOR_AXIS":"6925.343"},{"TLE_LINE2":"2 48383  53.0551  12.4292 0001585  91.6947 268.4223 15.06409295 98478","REV_AT_EPOCH":"9847","ARG_OF_PERICENTER":"91.6947","CENTER_NAME":"EARTH","TIME_SYSTEM":"UTC","LAUNCH_DATE":"2021-05-04","MEAN_MOTION_DDOT":"0.0000000000000","GP_ID":"224608547","ECCENTRICITY":"0.00015850","NORAD_CAT_ID":"48383","MEAN_MOTION":"15.06409295","OBJECT_ID":"2021-038AG","TLE_LINE1":"1 48383U 21038AG  23037.35442813  .00001998  00000-0  15294-3 0  9996","OBJECT_NAME":"STARLINK-2599","MEAN_ELEMENT_THEORY":"SGP4","RA_OF_ASC_NODE":"12.4292","INCLINATION":"53.0551","EPHEMERIS_TYPE":"0","REF_FRAME":"TEME","APOAPSIS":"548.283","RCS_SIZE":"LARGE","EPOCH":"2023-02-06T08:30:22.590432","CLASSIFICATION_TYPE":"U","OBJECT_TYPE":"PAYLOAD","ELEMENT_SET_NO":"999","SITE":"AFETR","SEMIMAJOR_AXIS":"6925.320","FILE":"3775254","MEAN_MOTION_DOT":"0.00001998","DECAY_DATE":null,"PERIOD":"95.592","COUNTRY_CODE":"US","BSTAR":"0.00015294000000","PERIAPSIS":"546.087","MEAN_ANOMALY":"268.4223"},{"TLE_LINE1":"1 48384U 21038AH  23037.21804943  .00001872  00000-0  14451-3 0  9993","OBJECT_ID":"2021-038AH","OBJECT_NAME":"STARLINK-2601","LAUNCH_DATE":"2021-05-04","MEAN_MOTION_DDOT":"0.0000000000000","CENTER_NAME":"EARTH","TIME_SYSTEM":"UTC","NORAD_CAT_ID":"48384","MEAN_MOTION":"15.06406707","GP_ID":"224572062","ECCENTRICITY":"0.00013050","REV_AT_EPOCH":"9781","ARG_OF_PERICENTER":"87.7711","TLE_LINE2":"2 48384  53.0543  13.0383 0001305  87.7711 272.3427 15.06406707 97815","PERIOD":"95.592","COUNTRY_CODE":"US","PERIAPSIS":"546.289","MEAN_ANOMALY":"272.3427","BSTAR":"0.00014451000000","FILE":"3774617","SITE":"AFETR","SEMIMAJOR_AXIS":"6925.328","ELEMENT_SET_NO":"999","DECAY_DATE":null,"MEAN_MOTION_DOT":"0.00001872","CLASSIFICATION_TYPE":"U","EPOCH":"2023-02-06T05:13:59.470752","RCS_SIZE":"LARGE","OBJECT_TYPE":"PAYLOAD","INCLINATION":"53.0543","MEAN_ELEMENT_THEORY":"SGP4","RA_OF_ASC_NODE":"13.0383","APOAPSIS":"548.097","REF_FRAME":"TEME","EPHEMERIS_TYPE":"0"},{"OBJECT_TYPE":"PAYLOAD","CLASSIFICATION_TYPE":"U","EPOCH":"2023-02-06T08:19:45.691104","RCS_SIZE":"LARGE","APOAPSIS":"548.156","REF_FRAME":"TEME","EPHEMERIS_TYPE":"0","INCLINATION":"53.0529","MEAN_ELEMENT_THEORY":"SGP4","RA_OF_ASC_NODE":"12.4607","PERIAPSIS":"546.197","MEAN_ANOMALY":"267.1196","BSTAR":"0.00031414000000","PERIOD":"95.591","COUNTRY_CODE":"US","DECAY_DATE":null,"MEAN_MOTION_DOT":"0.00004402","FILE":"3775254","ELEMENT_SET_NO":"999","SITE":"AFETR","SEMIMAJOR_AXIS":"6925.311","ARG_OF_PERICENTER":"92.9955","REV_AT_EPOCH":"9847","TLE_LINE2":"2 48385  53.0529  12.4607 0001414  92.9955 267.1196 15.06412149 98476","OBJECT_NAME":"STARLINK-2598","TLE_LINE1":"1 48385U 21038AJ  23037.34705661  .00004402  00000-0  31414-3 0  9995","OBJECT_ID":"2021-038AJ","NORAD_CAT_ID":"48385","MEAN_MOTION":"15.06412149","GP_ID":"224607045","ECCENTRICITY":"0.00014140","LAUNCH_DATE":"2021-05-04","MEAN_MOTION_DDOT":"0.0000000000000","TIME_SYSTEM":"UTC","CENTER_NAME":"EARTH"},{"DECAY_DATE":null,"MEAN_MOTION_DOT":"0.00001586","FILE":"3775254","SITE":"AFETR","SEMIMAJOR_AXIS":"6925.335","ELEMENT_SET_NO":"999","PERIAPSIS":"546.136","MEAN_ANOMALY":"269.4710","BSTAR":"0.00012535000000","PERIOD":"95.592","COUNTRY_CODE":"US","REF_FRAME":"TEME","APOAPSIS":"548.264","EPHEMERIS_TYPE":"0","INCLINATION":"53.0549","MEAN_ELEMENT_THEORY":"SGP4","RA_OF_ASC_NODE":"7.5284","OBJECT_TYPE":"PAYLOAD","CLASSIFICATION_TYPE":"U","EPOCH":"2023-02-06T08:01:51.116160","RCS_SIZE":"LARGE","NORAD_CAT_ID":"48386","MEAN_MOTION":"15.06404389","GP_ID":"224607295","ECCENTRICITY":"0.00015360","MEAN_MOTION_DDOT":"0.0000000000000","LAUNCH_DATE":"2021-05-04","CENTER_NAME":"EARTH","TIME_SYSTEM":"UTC","OBJECT_NAME":"STARLINK-2606","TLE_LINE1":"1 48386U 21038AK  23037.33461940  .00001586  00000-0  12535-3 0  9997","OBJECT_ID":"2021-038AK","TLE_LINE2":"2 48386  53.0549   7.5284 0001536  90.6455 269.4710 15.06404389 97316","ARG_OF_PERICENTER":"90.6455","REV_AT_EPOCH":"9731"},{"REV_AT_EPOCH":"9732","ARG_OF_PERICENTER":"83.5205","TLE_LINE2":"2 48387  53.0548   7.3554 0001344  83.5205 276.5937 15.06414122 97322","OBJECT_ID":"2021-038AL","TLE_LINE1":"1 48387U 21038AL  23037.36410627  .00010327  00000-0  71088-3 0  9998","OBJECT_NAME":"STARLINK-2600","TIME_SYSTEM":"UTC","CENTER_NAME":"EARTH","LAUNCH_DATE":"2021-05-04","MEAN_MOTION_DDOT":"0.0000000000000","GP_ID":"224608047","ECCENTRICITY":"0.00013440","MEAN_MOTION":"15.06414122","NORAD_CAT_ID":"48387","RCS_SIZE":"LARGE","CLASSIFICATION_TYPE":"U","EPOCH":"2023-02-06T08:44:18.781728","OBJECT_TYPE":"PAYLOAD","RA_OF_ASC_NODE":"7.3554","MEAN_ELEMENT_THEORY":"SGP4","INCLINATION":"53.0548","EPHEMERIS_TYPE":"0","APOAPSIS":"548.101","REF_FRAME":"TEME","COUNTRY_CODE":"US","PERIOD":"95.591","BSTAR":"0.00071088000000","MEAN_ANOMALY":"276.5937","PERIAPSIS":"546.240","SITE":"AFETR","ELEMENT_SET_NO":"999","SEMIMAJOR_AXIS":"6925.305","FILE":"3775254","MEAN_MOTION_DOT":"0.00010327","DECAY_DATE":null},{"TLE_LINE1":"1 48388U 21038AM  23037.22772944  .00015867  00000-0  10818-2 0  9994","OBJECT_ID":"2021-038AM","OBJECT_NAME":"STARLINK-2594","LAUNCH_DATE":"2021-05-04","MEAN_MOTION_DDOT":"0.0000000000000","TIME_SYSTEM":"UTC","CENTER_NAME":"EARTH","NORAD_CAT_ID":"48388","MEAN_MOTION":"15.06397635","GP_ID":"224608798","ECCENTRICITY":"0.00017710","REV_AT_EPOCH":"9730","ARG_OF_PERICENTER":"107.1689","TLE_LINE2":"2 48388  53.0546   7.9994 0001771 107.1689 252.9494 15.06397635 97301","PERIOD":"95.592","COUNTRY_CODE":"US","PERIAPSIS":"545.994","MEAN_ANOMALY":"252.9494","BSTAR":"0.00108180000000","FILE":"3775254","SEMIMAJOR_AXIS":"6925.356","SITE":"AFETR","ELEMENT_SET_NO":"999","DECAY_DATE":null,"MEAN_MOTION_DOT":"0.00015867","CLASSIFICATION_TYPE":"U","EPOCH":"2023-02-06T05:27:55.823616","RCS_SIZE":"LARGE","OBJECT_TYPE":"PAYLOAD","INCLINATION":"53.0546","MEAN_ELEMENT_THEORY":"SGP4","RA_OF_ASC_NODE":"7.9994","REF_FRAME":"TEME","APOAPSIS":"548.447","EPHEMERIS_TYPE":"0"},{"COUNTRY_CODE":"US","PERIOD":"95.592","MEAN_ANOMALY":"253.2800","PERIAPSIS":"546.151","BSTAR":"0.00014036000000","FILE":"3776034","SITE":"AFETR","SEMIMAJOR_AXIS":"6925.351","ELEMENT_SET_NO":"999","DECAY_DATE":null,"MEAN_MOTION_DOT":"0.00001810","EPOCH":"2023-02-06T21:04:03.186624","CLASSIFICATION_TYPE":"U","RCS_SIZE":"LARGE","OBJECT_TYPE":"PAYLOAD","INCLINATION":"53.0542","RA_OF_ASC_NODE":"0.0683","MEAN_ELEMENT_THEORY":"SGP4","APOAPSIS":"548.281","REF_FRAME":"TEME","EPHEMERIS_TYPE":"0","TLE_LINE1":"1 48389U 21038AN  23037.87781466  .00001810  00000-0  14036-3 0  9995","OBJECT_ID":"2021-038AN","OBJECT_NAME":"STARLINK-1904","MEAN_MOTION_DDOT":"0.0000000000000","LAUNCH_DATE":"2021-05-04","TIME_SYSTEM":"UTC","CENTER_NAME":"EARTH","MEAN_MOTION":"15.06399311","NORAD_CAT_ID":"48389","GP_ID":"224649876","ECCENTRICITY":"0.00015380","REV_AT_EPOCH":"9746","ARG_OF_PERICENTER":"106.8358","TLE_LINE2":"2 48389  53.0542   0.0683 0001538 106.8358 253.2800 15.06399311 97462"},{"TLE_LINE2":"2 48390  53.0543   0.0928 0001291  94.6069 265.5067 15.06403805 98686","ARG_OF_PERICENTER":"94.6069","REV_AT_EPOCH":"9868","NORAD_CAT_ID":"48390","MEAN_MOTION":"15.06403805","GP_ID":"224651128","ECCENTRICITY":"0.00012910","LAUNCH_DATE":"2021-05-04","MEAN_MOTION_DDOT":"0.0000000000000","CENTER_NAME":"EARTH","TIME_SYSTEM":"UTC","OBJECT_NAME":"STARLINK-2586","TLE_LINE1":"1 48390U 21038AP  23037.87507335  .00003383  00000-0  24584-3 0  9994","OBJECT_ID":"2021-038AP","APOAPSIS":"548.096","REF_FRAME":"TEME","EPHEMERIS_TYPE":"0","INCLINATION":"53.0543","MEAN_ELEMENT_THEORY":"SGP4","RA_OF_ASC_NODE":"0.0928","OBJECT_TYPE":"PAYLOAD","EPOCH":"2023-02-06T21:00:06.337440","CLASSIFICATION_TYPE":"U","RCS_SIZE":"LARGE","DECAY_DATE":null,"MEAN_MOTION_DOT":"0.00003383","FILE":"3776034","SEMIMAJOR_AXIS":"6925.337","SITE":"AFETR","ELEMENT_SET_NO":"999","PERIAPSIS":"546.308","MEAN_ANOMALY":"265.5067","BSTAR":"0.00024584000000","PERIOD":"95.592","COUNTRY_CODE":"US"},{"OBJECT_TYPE":"PAYLOAD","EPOCH":"2023-02-06T20:54:47.906784","CLASSIFICATION_TYPE":"U","RCS_SIZE":"LARGE","APOAPSIS":"548.357","REF_FRAME":"TEME","EPHEMERIS_TYPE":"0","INCLINATION":"53.0540","MEAN_ELEMENT_THEORY":"SGP4","RA_OF_ASC_NODE":"0.1055","PERIAPSIS":"546.060","MEAN_ANOMALY":"273.9150","BSTAR":"0.00021312000000","PERIOD":"95.592","COUNTRY_CODE":"US","DECAY_DATE":null,"MEAN_MOTION_DOT":"0.00002894","FILE":"3776034","SEMIMAJOR_AXIS":"6925.344","SITE":"AFETR","ELEMENT_SET_NO":"999","ARG_OF_PERICENTER":"86.2029","REV_AT_EPOCH":"9868","TLE_LINE2":"2 48391  53.0540   0.1055 0001659  86.2029 273.9150 15.06401642 98680","OBJECT_NAME":"STARLINK-2607","TLE_LINE1":"1 48391U 21038AQ  23037.87138781  .00002894  00000-0  21312-3 0  9992","OBJECT_ID":"2021-038AQ","NORAD_CAT_ID":"48391","MEAN_MOTION":"15.06401642","GP_ID":"224651379","ECCENTRICITY":"0.00016590","LAUNCH_DATE":"2021-05-04","MEAN_MOTION_DDOT":"0.0000000000000","TIME_SYSTEM":"UTC","CENTER_NAME":"EARTH"}];
